GLOBALSTAR M001         
1 25162U 98008A   25004.67212203 -.00000068  00000+0  22140-3 0  9991
2 25162  52.0039  89.1461 0001086 235.8903 289.1440 12.38204928223454
GLOBALSTAR M004         
1 25163U 98008B   25004.96489566 -.00000059  00000+0  24593-3 0  9996
2 25163  51.9972 192.1002 0001958 298.8123 226.0431 12.63384203241055
GLOBALSTAR M002         
1 25164U 98008C   25004.91427008 -.00000104  00000+0 -53778-3 0  9994
2 25164  52.0025 289.5848 0000676 186.3565 173.7247 11.61506135165092
GLOBALSTAR M014         
1 25306U 98023A   25004.90322694 -.00000076  00000+0  23235-4 0  9996
2 25306  51.9805 216.2705 0002153  69.8730 303.2072 11.65477621172134
GLOBALSTAR M006         
1 25307U 98023B   25004.92540987 -.00000057  00000+0  37835-3 0  9995
2 25307  51.9932 262.5864 0003352 154.3984 266.2309 11.58171148197910
GLOBALSTAR M015         
1 25308U 98023C   25004.90366346 -.00000054  00000+0  43642-3 0  9999
2 25308  51.9848 353.6258 0012674 145.2467 231.9293 11.48855657175312
GLOBALSTAR M008         
1 25309U 98023D   25004.88335021 -.00000042  00000+0  42482-3 0  9991
2 25309  51.9988 311.5125 0002151 182.6938 211.5862 12.36059847217656
